{"type": "FeatureCollection", "features": [ {"type": "Feature", "properties": {"norad_id": 66659, "name": "JACK K", "group": "last-30-days", "lat": 78.63003276183169, "lon": -138.85331189071056, "alt_km": 586.8864964583263, "timestamp": "2025-12-02T07:10:07.868995+00:00", "meta": {"OBJECT_NAME": "JACK K", "OBJECT_ID": "2025-274K", "EPOCH": "2025-12-01T17:56:02.624640", "MEAN_MOTION": 14.9270196, "ECCENTRICITY": 0.0012626, "INCLINATION": 97.7374, "RA_OF_ASC_NODE": 263.1465, "ARG_OF_PERICENTER": 321.0842, "MEAN_ANOMALY": 38.9468, "EPHEMERIS_TYPE": 0, "CLASSIFICATION_TYPE": "U", "NORAD_CAT_ID": 66659, "ELEMENT_SET_NO": 999, "REV_AT_EPOCH": 76, "BSTAR": 0.00036748, "MEAN_MOTION_DOT": 3.74e-05, "MEAN_MOTION_DDOT": 0}, "tle": {"line1": "1 66659U 25274K   25335.74725260  .00003740  00000+0  36748-3 0  9997", "line2": "2 66659  97.7374 263.1465 0012626 321.0842  38.9468 14.92701960   765"}}, "geometry": {"type": "Point", "coordinates": [-138.85331189071056, 78.63003276183169]}}, {"type": "Feature", "properties": {"norad_id": 66660, "name": "K-HERO", "group": "last-30-days", "lat": 80.61062569235746, "lon": -151.62279344796548, "alt_km": 586.8923477225862, "timestamp": "2025-12-02T07:10:07.869013+00:00", "meta": {"OBJECT_NAME": "K-HERO", "OBJECT_ID": "2025-274L", "EPOCH": "2025-12-01T17:55:18.874272", "MEAN_MOTION": 14.9285317, "ECCENTRICITY": 0.0013251, "INCLINATION": 97.7378, "RA_OF_ASC_NODE": 263.1475, "ARG_OF_PERICENTER": 321.6444, "MEAN_ANOMALY": 38.3832, "EPHEMERIS_TYPE": 0, "CLASSIFICATION_TYPE": "U", "NORAD_CAT_ID": 66660, "ELEMENT_SET_NO": 999, "REV_AT_EPOCH": 76, "BSTAR": 0.00040358, "MEAN_MOTION_DOT": 4.13e-05, "MEAN_MOTION_DDOT": 0}, "tle": {"line1": "1 66660U 25274L   25335.74674623  .00004130  00000+0  40358-3 0  9991", "line2": "2 66660  97.7378 263.1475 0013251 321.6444  38.3832 14.92853170   761"}}, "geometry": {"type": "Point", "coordinates": [-151.62279344796548, 80.61062569235746]}}, {"type": "Feature", "properties": {"norad_id": 66661, "name": "SNUGLITE-III", "group": "last-30-days", "lat": 81.95860649561769, "lon": -170.54798837162983, "alt_km": 586.9870866960373, "timestamp": "2025-12-02T07:10:07.869030+00:00", "meta": {"OBJECT_NAME": "SNUGLITE-III", "OBJECT_ID": "2025-274M", "EPOCH": "2025-12-01T17:54:33.114240", "MEAN_MOTION": 14.93004804, "ECCENTRICITY": 0.0013939, "INCLINATION": 97.7376, "RA_OF_ASC_NODE": 263.1479, "ARG_OF_PERICENTER": 322.3155, "MEAN_ANOMALY": 37.7086, "EPHEMERIS_TYPE": 0, "CLASSIFICATION_TYPE": "U", "NORAD_CAT_ID": 66661, "ELEMENT_SET_NO": 999, "REV_AT_EPOCH": 76, "BSTAR": 0.00031193, "MEAN_MOTION_DOT": 3.192e-05, "MEAN_MOTION_DDOT": 0}, "tle": {"line1": "1 66661U 25274M   25335.74621660  .00003192  00000+0  31193-3 0  9999", "line2": "2 66661  97.7376 263.1479 0013939 322.3155  37.7086 14.93004804   761"}}, "geometry": {"type": "Point", "coordinates": [-170.54798837162983, 81.95860649561769]}}, {"type": "Feature", "properties": {"norad_id": 66662, "name": "2025-274N", "group": "last-30-days", "lat": 82.21862215109414, "lon": 179.42652842376458, "alt_km": 587.2212451041169, "timestamp": "2025-12-02T07:10:07.869049+00:00", "meta": {"OBJECT_NAME": "2025-274N", "OBJECT_ID": "2025-274N", "EPOCH": "2025-12-01T17:54:12.595968", "MEAN_MOTION": 14.93069825, "ECCENTRICITY": 0.001433, "INCLINATION": 97.7377, "RA_OF_ASC_NODE": 263.1482, "ARG_OF_PERICENTER": 321.6887, "MEAN_ANOMALY": 38.3313, "EPHEMERIS_TYPE": 0, "CLASSIFICATION_TYPE": "U", "NORAD_CAT_ID": 66662, "ELEMENT_SET_NO": 999, "REV_AT_EPOCH": 76, "BSTAR": 0.00022873, "MEAN_MOTION_DOT": 2.329e-05, "MEAN_MOTION_DDOT": 0}, "tle": {"line1": "1 66662U 25274N   25335.74597912  .00002329  00000+0  22873-3 0  9998", "line2": "2 66662  97.7377 263.1482 0014330 321.6887  38.3313 14.93069825   761"}}, "geometry": {"type": "Point", "coordinates": [179.42652842376458, 82.21862215109414]}}, {"type": "Feature", "properties": {"norad_id": 66663, "name": "KSLV-II R/B", "group": "last-30-days", "lat": 3.020817068546423, "lon": 84.15322694971566, "alt_km": 608.8900217542914, "timestamp": "2025-12-02T07:10:07.869068+00:00", "meta": {"OBJECT_NAME": "KSLV-II R/B", "OBJECT_ID": "2025-274P", "EPOCH": "2025-12-01T19:09:11.937312", "MEAN_MOTION": 14.97208303, "ECCENTRICITY": 0.0044233, "INCLINATION": 97.7405, "RA_OF_ASC_NODE": 263.2462, "ARG_OF_PERICENTER": 354.9322, "MEAN_ANOMALY": 5.1446, "EPHEMERIS_TYPE": 0, "CLASSIFICATION_TYPE": "U", "NORAD_CAT_ID": 66663, "ELEMENT_SET_NO": 999, "REV_AT_EPOCH": 77, "BSTAR": -0.00030154, "MEAN_MOTION_DOT": -3.618e-05, "MEAN_MOTION_DDOT": 0}, "tle": {"line1": "1 66663U 25274P   25335.79805483 -.00003618  00000+0 -30154-3 0  9994", "line2": "2 66663  97.7405 263.2462 0044233 354.9322   5.1446 14.97208303   771"}}, "geometry": {"type": "Point", "coordinates": [84.15322694971566, 3.020817068546423]}}, {"type": "Feature", "properties": {"norad_id": 66664, "name": "SOYUZ-MS 28", "group": "last-30-days", "lat": 48.27349983004734, "lon": -103.15890800065776, "alt_km": 413.59699042668217, "timestamp": "2025-12-02T07:10:07.869092+00:00", "meta": {"OBJECT_NAME": "SOYUZ-MS 28", "OBJECT_ID": "2025-275A", "EPOCH": "2025-12-01T13:49:44.445504", "MEAN_MOTION": 15.49226524, "ECCENTRICITY": 0.00036473, "INCLINATION": 51.6309, "RA_OF_ASC_NODE": 197.7449, "ARG_OF_PERICENTER": 190.9481, "MEAN_ANOMALY": 169.1428, "EPHEMERIS_TYPE": 0, "CLASSIFICATION_TYPE": "U", "NORAD_CAT_ID": 66664, "ELEMENT_SET_NO": 999, "REV_AT_EPOCH": 71, "BSTAR": 0.00016365535, "MEAN_MOTION_DOT": 8.648e-05, "MEAN_MOTION_DDOT": 0}, "tle": {"line1": "1 66664U 25275A   25335.57620886  .00008648  00000+0  16366-3 0  9999", "line2": "2 66664  51.6309 197.7449 0003647 190.9481 169.1428 15.49226524   716"}}, "geometry": {"type": "Point", "coordinates": [-103.15890800065776, 48.27349983004734]}}]}